[{"OBJECT_NAME":"STARLINK-1506","OBJECT_ID":"2020-038T","EPOCH":"2026-03-09T15:50:48.887520","MEAN_MOTION":15.26134655,"ECCENTRICITY":0.00025141,"INCLINATION":53.0733,"RA_OF_ASC_NODE":202.5028,"ARG_OF_PERICENTER":227.7836,"MEAN_ANOMALY":132.2949,"EPHEMERIS_TYPE":0,"CLASSIFICATION_TYPE":"U","NORAD_CAT_ID":45747,"ELEMENT_SET_NO":999,"REV_AT_EPOCH":31668,"BSTAR":0.0009799682,"MEAN_MOTION_DOT":0.0002538,"MEAN_MOTION_DDOT":0},{"OBJECT_NAME":"STARLINK-30871","OBJECT_ID":"2023-170Y","EPOCH":"2026-03-09T15:59:14.734464","MEAN_MOTION":15.27573938,"ECCENTRICITY":0.00018496,"INCLINATION":43.001,"RA_OF_ASC_NODE":194.5306,"ARG_OF_PERICENTER":276.5002,"MEAN_ANOMALY":83.5639,"EPHEMERIS_TYPE":0,"CLASSIFICATION_TYPE":"U","NORAD_CAT_ID":58228,"ELEMENT_SET_NO":999,"REV_AT_EPOCH":13029,"BSTAR":1.0799953e-5,"MEAN_MOTION_DOT":3.5e-7,"MEAN_MOTION_DDOT":0}]
