STARLINK-1506           
1 45747U 20038T   26068.66028804  .00025380  00000+0  97997-3 0  9997
2 45747  53.0733 202.5028 0002514 227.7836 132.2949 15.26134655316688
STARLINK-30871          
1 58228U 23170Y   26068.66614276  .00000035  00000+0  10800-4 0  9998
2 58228  43.0010 194.5306 0001850 276.5002  83.5639 15.27573938130298
